{"type": "FeatureCollection", "features": [{"type": "Feature", "properties": {"norad_id": 24946, "name": "IRIDIUM 33", "group": "iridium-33-debris", "lat": 54.95167736135719, "lon": 67.98554766924151, "alt_km": 771.2119254018126, "timestamp": "2025-12-25T14:48:25.157547+00:00", "meta": {"OBJECT_NAME": "IRIDIUM 33", "OBJECT_ID": "1997-051C", "EPOCH": "2025-12-25T06:11:00.134016", "MEAN_MOTION": 14.35045823, "ECCENTRICITY": 0.00085083, "INCLINATION": 86.3857, "RA_OF_ASC_NODE": 62.9667, "ARG_OF_PERICENTER": 159.9968, "MEAN_ANOMALY": 200.1564, "EPHEMERIS_TYPE": 0, "CLASSIFICATION_TYPE": "U", "NORAD_CAT_ID": 24946, "ELEMENT_SET_NO": 999, "REV_AT_EPOCH": 48014, "BSTAR": 0.0001152438, "MEAN_MOTION_DOT": 3.48e-06, "MEAN_MOTION_DDOT": 0}, "tle": {"line1": "1 24946U 97051C   25359.25764044  .00000348  00000+0  11524-3 0  9993", "line2": "2 24946  86.3857  62.9667 0008508 159.9968 200.1564 14.35045823480148"}}, "geometry": {"type": "Point", "coordinates": [67.98554766924151, 54.95167736135719]}}, {"type": "Feature", "properties": {"norad_id": 33773, "name": "IRIDIUM 33 DEB", "group": "iridium-33-debris", "lat": 32.85692509758632, "lon": 57.46260323594857, "alt_km": 743.503117618071, "timestamp": "2025-12-25T14:48:25.157592+00:00", "meta": {"OBJECT_NAME": "IRIDIUM 33 DEB", "OBJECT_ID": "1997-051L", "EPOCH": "2025-12-25T03:00:26.345088", "MEAN_MOTION": 14.43282119, "ECCENTRICITY": 0.00132738, "INCLINATION": 86.3998, "RA_OF_ASC_NODE": 55.3405, "ARG_OF_PERICENTER": 110.8698, "MEAN_ANOMALY": 249.3926, "EPHEMERIS_TYPE": 0, "CLASSIFICATION_TYPE": "U", "NORAD_CAT_ID": 33773, "ELEMENT_SET_NO": 999, "REV_AT_EPOCH": 88526, "BSTAR": 0.00029112934, "MEAN_MOTION_DOT": 1.001e-05, "MEAN_MOTION_DDOT": 0}, "tle": {"line1": "1 33773U 97051L   25359.12530492  .00001001  00000+0  29113-3 0  9995", "line2": "2 33773  86.3998  55.3405 0013273 110.8698 249.3926 14.43282119885268"}}, "geometry": {"type": "Point", "coordinates": [57.46260323594857, 32.85692509758632]}}, {"type": "Feature", "properties": {"norad_id": 33775, "name": "IRIDIUM 33 DEB", "group": "iridium-33-debris", "lat": 33.563012028608725, "lon": 46.47422950257546, "alt_km": 750.0886527200682, "timestamp": "2025-12-25T14:48:25.157607+00:00", "meta": {"OBJECT_NAME": "IRIDIUM 33 DEB", "OBJECT_ID": "1997-051N", "EPOCH": "2025-12-24T21:08:33.647136", "MEAN_MOTION": 14.41493494, "ECCENTRICITY": 0.0015301, "INCLINATION": 86.3624, "RA_OF_ASC_NODE": 44.3695, "ARG_OF_PERICENTER": 118.5758, "MEAN_ANOMALY": 58.3115, "EPHEMERIS_TYPE": 0, "CLASSIFICATION_TYPE": "U", "NORAD_CAT_ID": 33775, "ELEMENT_SET_NO": 999, "REV_AT_EPOCH": 88315, "BSTAR": 0.00031635, "MEAN_MOTION_DOT": 1.048e-05, "MEAN_MOTION_DDOT": 0}, "tle": {"line1": "1 33775U 97051N   25358.88094499  .00001048  00000+0  31635-3 0  9994", "line2": "2 33775  86.3624  44.3695 0015301 118.5758  58.3115 14.41493494883153"}}, "geometry": {"type": "Point", "coordinates": [46.47422950257546, 33.563012028608725]}}, {"type": "Feature", "properties": {"norad_id": 33776, "name": "IRIDIUM 33 DEB", "group": "iridium-33-debris", "lat": 66.0131665963141, "lon": -112.75887738179362, "alt_km": 748.8005246705861, "timestamp": "2025-12-25T14:48:25.157619+00:00", "meta": {"OBJECT_NAME": "IRIDIUM 33 DEB", "OBJECT_ID": "1997-051P", "EPOCH": "2025-12-25T06:12:42.675264", "MEAN_MOTION": 14.38256021, "ECCENTRICITY": 0.00157359, "INCLINATION": 86.4031, "RA_OF_ASC_NODE": 75.5184, "ARG_OF_PERICENTER": 150.7265, "MEAN_ANOMALY": 269.942, "EPHEMERIS_TYPE": 0, "CLASSIFICATION_TYPE": "U", "NORAD_CAT_ID": 33776, "ELEMENT_SET_NO": 999, "REV_AT_EPOCH": 88262, "BSTAR": 0.00026458687, "MEAN_MOTION_DOT": 8.25e-06, "MEAN_MOTION_DDOT": 0}, "tle": {"line1": "1 33776U 97051P   25359.25882726  .00000825  00000+0  26459-3 0  9995", "line2": "2 33776  86.4031  75.5184 0015735 150.7265 269.9420 14.38256021882627"}}, "geometry": {"type": "Point", "coordinates": [-112.75887738179362, 66.0131665963141]}}, {"type": "Feature", "properties": {"norad_id": 33777, "name": "IRIDIUM 33 DEB", "group": "iridium-33-debris", "lat": -12.594095190102925, "lon": 28.789403073480578, "alt_km": 715.608148143413, "timestamp": "2025-12-25T14:48:25.157631+00:00", "meta": {"OBJECT_NAME": "IRIDIUM 33 DEB", "OBJECT_ID": "1997-051Q", "EPOCH": "2025-12-25T03:18:59.715360", "MEAN_MOTION": 14.55696956, "ECCENTRICITY": 0.00063174, "INCLINATION": 86.3773, "RA_OF_ASC_NODE": 29.8087, "ARG_OF_PERICENTER": 197.114, "MEAN_ANOMALY": 162.9856, "EPHEMERIS_TYPE": 0, "CLASSIFICATION_TYPE": "U", "NORAD_CAT_ID": 33777, "ELEMENT_SET_NO": 999, "REV_AT_EPOCH": 88714, "BSTAR": 0.00084426608, "MEAN_MOTION_DOT": 3.71e-05, "MEAN_MOTION_DDOT": 0}, "tle": {"line1": "1 33777U 97051Q   25359.13819115  .00003710  00000+0  84427-3 0  9990", "line2": "2 33777  86.3773  29.8087 0006317 197.1140 162.9856 14.55696956887148"}}, "geometry": {"type": "Point", "coordinates": [28.789403073480578, -12.594095190102925]}}, {"type": "Feature", "properties": {"norad_id": 33850, "name": "IRIDIUM 33 DEB", "group": "iridium-33-debris", "lat": 45.92344827619674, "lon": 28.43136010658851, "alt_km": 745.187134027291, "timestamp": "2025-12-25T14:48:25.157641+00:00", "meta": {"OBJECT_NAME": "IRIDIUM 33 DEB", "OBJECT_ID": "1997-051T", "EPOCH": "2025-12-25T03:13:46.983648", "MEAN_MOTION": 14.4217692, "ECCENTRICITY": 0.00132777, "INCLINATION": 86.3408, "RA_OF_ASC_NODE": 24.8493, "ARG_OF_PERICENTER": 124.2339, "MEAN_ANOMALY": 299.1573, "EPHEMERIS_TYPE": 0, "CLASSIFICATION_TYPE": "U", "NORAD_CAT_ID": 33850, "ELEMENT_SET_NO": 999, "REV_AT_EPOCH": 88331, "BSTAR": 0.0004155285, "MEAN_MOTION_DOT": 1.388e-05, "MEAN_MOTION_DDOT": 0}, "tle": {"line1": "1 33850U 97051T   25359.13457157  .00001388  00000+0  41553-3 0  9998", "line2": "2 33850  86.3408  24.8493 0013277 124.2339 299.1573 14.42176920883319"}}, "geometry": {"type": "Point", "coordinates": [28.43136010658851, 45.92344827619674]}}, {"type": "Feature", "properties": {"norad_id": 33853, "name": "IRIDIUM 33 DEB", "group": "iridium-33-debris", "lat": -57.294031150449975, "lon": 170.41928165097156, "alt_km": 789.1234323038898, "timestamp": "2025-12-25T14:48:25.157652+00:00", "meta": {"OBJECT_NAME": "IRIDIUM 33 DEB", "OBJECT_ID": "1997-051W", "EPOCH": "2025-12-24T22:19:16.041792", "MEAN_MOTION": 13.99120379, "ECCENTRICITY": 0.0207734, "INCLINATION": 86.0001, "RA_OF_ASC_NODE": 344.4648, "ARG_OF_PERICENTER": 198.227, "MEAN_ANOMALY": 179.9108, "EPHEMERIS_TYPE": 0, "CLASSIFICATION_TYPE": "U", "NORAD_CAT_ID": 33853, "ELEMENT_SET_NO": 999, "REV_AT_EPOCH": 85516, "BSTAR": 0.0011909, "MEAN_MOTION_DOT": 2.092e-05, "MEAN_MOTION_DDOT": 0}, "tle": {"line1": "1 33853U 97051W   25358.93004678  .00002092  00000+0  11909-2 0  9998", "line2": "2 33853  86.0001 344.4648 0207734 198.2270 179.9108 13.99120379855168"}}, "geometry": {"type": "Point", "coordinates": [170.41928165097156, -57.294031150449975]}}, {"type": "Feature", "properties": {"norad_id": 33860, "name": "IRIDIUM 33 DEB", "group": "iridium-33-debris", "lat": 70.09591371170633, "lon": 31.599865173128617, "alt_km": 664.6439568393153, "timestamp": "2025-12-25T14:48:25.157663+00:00", "meta": {"OBJECT_NAME": "IRIDIUM 33 DEB", "OBJECT_ID": "1997-051AD", "EPOCH": "2025-12-25T01:40:13.916928", "MEAN_MOTION": 14.67512307, "ECCENTRICITY": 0.00060597, "INCLINATION": 86.3823, "RA_OF_ASC_NODE": 21.779, "ARG_OF_PERICENTER": 309.0617, "MEAN_ANOMALY": 111.5218, "EPHEMERIS_TYPE": 0, "CLASSIFICATION_TYPE": "U", "NORAD_CAT_ID": 33860, "ELEMENT_SET_NO": 999, "REV_AT_EPOCH": 88903, "BSTAR": 0.0011962769, "MEAN_MOTION_DOT": 6.804e-05, "MEAN_MOTION_DDOT": 0}, "tle": {"line1": "1 33860U 97051AD  25359.06960552  .00006804  00000+0  11963-2 0  9998", "line2": "2 33860  86.3823  21.7790 0006059 309.0617 111.5218 14.67512307889037"}}, "geometry": {"type": "Point", "coordinates": [31.599865173128617, 70.09591371170633]}}, {"type": "Feature", "properties": {"norad_id": 33862, "name": "IRIDIUM 33 DEB", "group": "iridium-33-debris", "lat": -24.439491172137302, "lon": -146.51372647988921, "alt_km": 704.4210723527403, "timestamp": "2025-12-25T14:48:25.157673+00:00", "meta": {"OBJECT_NAME": "IRIDIUM 33 DEB", "OBJECT_ID": "1997-051AF", "EPOCH": "2025-12-25T02:40:57.384192", "MEAN_MOTION": 14.69670864, "ECCENTRICITY": 0.00520966, "INCLINATION": 86.4081, "RA_OF_ASC_NODE": 32.0733, "ARG_OF_PERICENTER": 27.5778, "MEAN_ANOMALY": 25.6917, "EPHEMERIS_TYPE": 0, "CLASSIFICATION_TYPE": "U", "NORAD_CAT_ID": 33862, "ELEMENT_SET_NO": 999, "REV_AT_EPOCH": 89005, "BSTAR": 0.0015857546, "MEAN_MOTION_DOT": 9.663e-05, "MEAN_MOTION_DDOT": 0}, "tle": {"line1": "1 33862U 97051AF  25359.11177528  .00009663  00000+0  15858-2 0  9992", "line2": "2 33862  86.4081  32.0733 0052096  27.5778  25.6917 14.69670864890050"}}, "geometry": {"type": "Point", "coordinates": [-146.51372647988921, -24.439491172137302]}}, {"type": "Feature", "properties": {"norad_id": 33866, "name": "IRIDIUM 33 DEB", "group": "iridium-33-debris", "lat": 18.48942415575648, "lon": 88.82779328511354, "alt_km": 823.977925125524, "timestamp": "2025-12-25T14:48:25.157682+00:00", "meta": {"OBJECT_NAME": "IRIDIUM 33 DEB", "OBJECT_ID": "1997-051AK", "EPOCH": "2025-12-25T00:08:02.252832", "MEAN_MOTION": 14.25311588, "ECCENTRICITY": 0.01152694, "INCLINATION": 86.2996, "RA_OF_ASC_NODE": 87.8465, "ARG_OF_PERICENTER": 122.5126, "MEAN_ANOMALY": 2.3376, "EPHEMERIS_TYPE": 0, "CLASSIFICATION_TYPE": "U", "NORAD_CAT_ID": 33866, "ELEMENT_SET_NO": 999, "REV_AT_EPOCH": 86985, "BSTAR": 0.00058593776, "MEAN_MOTION_DOT": 1.498e-05, "MEAN_MOTION_DDOT": 0}, "tle": {"line1": "1 33866U 97051AK  25359.00558163  .00001498  00000+0  58594-3 0  9995", "line2": "2 33866  86.2996  87.8465 0115269 122.5126   2.3376 14.25311588869854"}}, "geometry": {"type": "Point", "coordinates": [88.82779328511354, 18.48942415575648]}}]}